{"type": "FeatureCollection", "features": [{"type": "Feature", "properties": {"key": "ponkar", "label": "Ponkar Glacier", "rgi_id": "RGI60-15.04541", "rgi_area_km2": 31.267, "zmin_m": 3734, "zmax_m": 6508, "zmed_m": 5768, "slope_deg": 12.8, "aspect_deg": 169, "length_m": 17925}, "geometry": {"type": "Polygon", "coordinates": [[[84.43259642200007, 28.762474970000028], [84.43314027100007, 28.762389832000054], [84.43368178400004, 28.762400124000067], [84.43417264900006, 28.762266236000073], [84.43466701500006, 28.761989198000038], [84.43510722700006, 28.761711130000037], [84.43560158800005, 28.761434089000034], [84.43604179500005, 28.761156017000076], [84.43658097000008, 28.761261730000058], [84.43678707600003, 28.761695287000066], [84.43715796900005, 28.762036495000075], [84.43764066600005, 28.762236608000023], [84.43812453100008, 28.762389004000056], [84.43866371500008, 28.762494708000077], [84.43914641800006, 28.762694816000078], [84.43951732300008, 28.763036018000037], [84.43994354700004, 28.763330530000076], [84.44042625700007, 28.763530634000062], [84.44096661400005, 28.763588613000024], [84.44156228800006, 28.76359990000003], [84.44210497500006, 28.76356244300007], [84.44259700100008, 28.76338080800008], [84.44308902500006, 28.763199171000053], [84.44358104800006, 28.76301753200005], [84.44391526600003, 28.762641951000035], [84.44440844800005, 28.76241259300008], [84.44490046500005, 28.76223094900007], [84.44539364300005, 28.762001586000054], [84.44616803600007, 28.76134789400004], [84.44709674000006, 28.76103128300008], [84.44758990800005, 28.760801912000034], [84.44797709500006, 28.760475059000044], [84.44841726800007, 28.760196945000075], [84.44885744000004, 28.75991882900007], [84.44919162900004, 28.759543233000045], [84.44957880600003, 28.75921637400006], [84.44996598100005, 28.758889515000078], [84.45035315300004, 28.75856265400006], [84.45074032300005, 28.75823579300004], [84.45112749000003, 28.757908929000052], [84.45146398400004, 28.75743789300003], [84.45174516600008, 28.757013550000067], [84.45213232600008, 28.756686683000055], [84.45241350300006, 28.756262339000045], [84.45285364800003, 28.75598420800003], [84.45324080000006, 28.75565733800005], [84.45341367300006, 28.755230949000065], [84.45364069300007, 28.754805581000028], [84.45403015500005, 28.754383274000077], [84.45441729800007, 28.754056399000035], [84.45469845800005, 28.753632049000032], [84.45503260600003, 28.753256435000026], [84.45531376200006, 28.752832083000044], [84.45593252800006, 28.751888963000056], [84.45609844000006, 28.751748872000064], [84.45648556600008, 28.75142199000004], [84.45681970000004, 28.75104637100003], [84.45720797800004, 28.750671770000054], [84.45754210700005, 28.750296149000064], [84.45782324500004, 28.749871790000043], [84.45815736900005, 28.749496167000075], [84.45833021000004, 28.749069770000062], [84.45871732000006, 28.748742881000055], [84.45910442600007, 28.74841599000007], [84.45959635500003, 28.74823428700006], [84.46231345000007, 28.748028352000063], [84.46232650000007, 28.748107756000024], [84.46231458800008, 28.74860024800006], [84.46230267500005, 28.749092740000037], [84.46219762200008, 28.749583482000048], [84.46218570800005, 28.750075974000026], [84.46208065300004, 28.750566715000048], [84.46197559600006, 28.75105745700006], [84.46168624100005, 28.751462616000026], [84.46167655900007, 28.751472827000043], [84.46144639900007, 28.751715568000066], [84.46096819400003, 28.751983714000062], [84.46095345000003, 28.752005970000027], [84.46144516600003, 28.75201521200006], [84.46202683100006, 28.752026143000023], [84.46260849500004, 28.752037071000075], [84.46319016100006, 28.752047996000044], [84.46377182600008, 28.752058919000035], [84.46382485900006, 28.752059915000075], [84.46435349200004, 28.752069839000058], [84.46493515800006, 28.752080757000044], [84.46590460200008, 28.752098948000025], [84.46649039600004, 28.751938995000046], [84.46746396500004, 28.751786310000057], [84.46811351300005, 28.75165607400004], [84.46824364400004, 28.751629983000043], [84.46882943200006, 28.751470019000067], [84.46941521900004, 28.751310052000065], [84.46959426600006, 28.751083935000054], [84.46981535800006, 28.750804721000065], [84.47021137300004, 28.75047025300006], [84.47055011400005, 28.750377745000037], [84.47079715300003, 28.750310280000065], [84.47138704900004, 28.749979438000025], [84.47197282400003, 28.749819460000026], [84.47236882900006, 28.749484985000038], [84.47295460000004, 28.749325002000035], [84.47335060000006, 28.748990524000078], [84.47394048100006, 28.748659670000052], [84.47452624500005, 28.748499679000076], [84.47511612000005, 28.748168820000046], [84.47570188100008, 28.748008824000067], [84.47667540500004, 28.74785606900008], [84.47692163800008, 28.747806679000064], [84.47745504400007, 28.74769968700008], [84.47823468200005, 28.747543300000075], [84.47881632900004, 28.747554157000025], [84.47940618600006, 28.747223278000035], [84.47999193600003, 28.74706326200004], [84.48039201000006, 28.746557895000024], [84.48078797600004, 28.746223393000037], [84.48099416300005, 28.745714407000037], [84.48120034700008, 28.745205422000026], [84.48140652900008, 28.744696435000037], [84.48141883300008, 28.74418383400007], [84.48143523700008, 28.743500366000035], [84.48144753900004, 28.742987765000066], [84.48165371500005, 28.742478778000077], [84.48185988900008, 28.74196979100003], [84.48187218900006, 28.741457189000073], [84.48188448800005, 28.740944588000048], [84.48209065700007, 28.74043559900008], [84.48210295500007, 28.739922998000054], [84.48211935100005, 28.73923952900003], [84.48213164800006, 28.738726927000073], [84.48234191000006, 28.73804707100004], [84.48234511700008, 28.73791336000005], [84.48195172400006, 28.737963639000043], [84.48167233000004, 28.737958432000028], [84.48139293600008, 28.73795322500007], [84.48111354200006, 28.737948016000075], [84.48074101600008, 28.737941071000023], [84.48055475300004, 28.73793759800003], [84.48018222800005, 28.737930651000056], [84.47990283400009, 28.737925441000073], [84.47953030900004, 28.737918492000063], [84.47934404700004, 28.737915018000024], [84.47878723100007, 28.73782250900007], [84.47822844500007, 28.737812081000072], [84.47767163100008, 28.737719568000045], [84.47711679100007, 28.737544969000055], [84.47655998100004, 28.73745245200007], [84.47610024900007, 28.73719750600003], [84.47564051900008, 28.736942558000067], [84.47564733200005, 28.736659261000057], [84.47585393600008, 28.736699712000075], [84.47639533400007, 28.73670982400006], [84.47693788000004, 28.736672217000034], [84.47747927900008, 28.73668232500006], [84.47802182400005, 28.736644713000032], [84.47856322300004, 28.736654817000044], [84.47910691400006, 28.73656948300004], [84.47970359900006, 28.736532874000034], [84.48024728900003, 28.736447535000025], [84.48068728000004, 28.736169303000054], [84.48117911700007, 28.735987515000033], [84.48172280400007, 28.73590217000003], [84.48226649000009, 28.73581682200006], [84.48275717900003, 28.735682746000066], [84.48324786800003, 28.735548668000035], [84.48379155100008, 28.73546331400007], [84.48433409000006, 28.735425676000034], [84.48482477600004, 28.735291592000067], [84.48536617000008, 28.735301669000023], [84.48590985100003, 28.73521630600004], [84.48645467400007, 28.73508322300006], [84.48699949500008, 28.734950138000045], [84.48749131800008, 28.73476832600005], [84.48803842100006, 28.73453979900006], [84.48853138200008, 28.734310265000033], [84.48881235100004, 28.733885830000077], [84.48898504000005, 28.733459383000024], [84.48905059200007, 28.73298320600003], [84.48879017200005, 28.73254871000006], [84.48847561700006, 28.732113209000033], [84.48826478600006, 28.73194355800007], [84.48824769000004, 28.731839680000064], [84.48788304000004, 28.731504421000068], [84.48742330200008, 28.731249513000023], [84.48705865700003, 28.73091425100006], [84.48659892500007, 28.730659341000035], [84.48623428400003, 28.730324077000034], [84.48596473700007, 28.729908462000026], [84.48569519100005, 28.729492846000028], [84.48533055800004, 28.72915758000005], [84.48487083700007, 28.72890266400003], [84.48450620800008, 28.728567397000063], [84.48404845900006, 28.728230395000026], [84.48349365500007, 28.72805582500007], [84.48293885400005, 28.727881253000078], [84.48238011900008, 28.72787084500004], [84.48182138400006, 28.72786043600007], [84.48125871100007, 28.728014191000057], [84.48087834400008, 28.728335582000057], [84.48068028100005, 28.72882461100005], [84.48057534100008, 28.729315375000056], [84.48037727500008, 28.72980440300006], [84.48028685500003, 28.729955715000074], [84.48018650100005, 28.72995384400008], [84.47948272600007, 28.72994072000006], [84.47894136200006, 28.72993062200004], [84.47839999700005, 28.729920522000043], [84.47785863300004, 28.729910419000078], [84.47726313300006, 28.72989930400007], [84.47666648600006, 28.729935904000058], [84.47606983900005, 28.729972502000066], [84.47557917000006, 28.730106555000077], [84.47503780600005, 28.730096441000057], [84.47449529500005, 28.730134043000078], [84.47395393100004, 28.730123925000044], [84.47341486400006, 28.73001836900005], [84.47287350200008, 28.730008247000058], [84.47233328800007, 28.729950405000068], [84.47179192600004, 28.729940278000072], [84.47124941600003, 28.72997786700006], [84.47070690500004, 28.730015454000068], [84.47016324400005, 28.73010075600007], [84.46967141800008, 28.730282505000048], [84.46928441300008, 28.73060943200005], [84.46894924200006, 28.731032808000066], [84.46866820500009, 28.731457197000054], [84.46828119200006, 28.731784121000032], [84.46800015000008, 28.732208508000042], [84.46766496800007, 28.732631879000053], [84.46727679700007, 28.733006518000025], [84.46678265100007, 28.733283690000064], [84.46628965300005, 28.73351314300004], [84.46579780600007, 28.733694876000072], [84.46526368900004, 28.73368485800006], [84.46520011800004, 28.73329808400007], [84.46511888400005, 28.732803842000067], [84.46494452500008, 28.732307854000055], [84.46495641700005, 28.73181536000004], [84.46468695300007, 28.731399707000037], [84.46460572200004, 28.730905466000024], [84.46433626200007, 28.73048981200003], [84.46406878700003, 28.72999207600003], [84.46380131400008, 28.72949434000003], [84.46353582600005, 28.728914520000046], [84.46326637500005, 28.728498865000063], [84.46304762100004, 28.728247028000055], [84.46300927500005, 28.72805708100003], [84.46291253500004, 28.727577874000076], [84.46297819800003, 28.72710171600005], [84.46336520700004, 28.726774806000037], [84.46375221400007, 28.726447896000025], [84.46424633400005, 28.72617073300006], [84.46473929900003, 28.725941285000033], [84.46523111100004, 28.725759554000035], [84.46572407200006, 28.72553010200005], [84.46626656000007, 28.725492534000068], [84.46686433200006, 28.72540826100004], [84.46740566900007, 28.725418406000074], [84.46794700500004, 28.72542854900007], [84.46848834200006, 28.725438690000033], [84.46902968000006, 28.725448828000026], [84.46956986700008, 28.72550668200006], [84.47010775700005, 28.72565996900005], [84.47059151400003, 28.72581224100003], [84.47107527200006, 28.725964512000076], [84.47155903200007, 28.72611678100003], [84.47209922600007, 28.726174625000056], [84.47264056800003, 28.726184749000026], [84.47318191100004, 28.726194871000075], [84.47372325400005, 28.72620499100003], [84.47426459700006, 28.726215109000066], [84.47480594100006, 28.726225224000075], [84.47534728500005, 28.726235338000038], [84.47588862900005, 28.726245449000032], [84.47664765800005, 28.726211883000076], [84.47719129500007, 28.72612655300003], [84.47773607800008, 28.72599350300004], [84.47822672500007, 28.72585944100007], [84.47872080800005, 28.72558222200007], [84.47959955400006, 28.72507347800007], [84.47965368800004, 28.725074488000075], [84.48014432900004, 28.724940418000074], [84.48053128000004, 28.724613456000043], [84.48070398300007, 28.724187020000045], [84.48060716400005, 28.723707821000062], [84.48012568800004, 28.723460148000072], [84.47964192500007, 28.723307910000074], [84.47916045400007, 28.72306023400006], [84.47867898600003, 28.722812556000065], [84.47819637400005, 28.722612595000044], [84.47771261800006, 28.722460350000063], [84.47723001000008, 28.722260386000073], [84.47674625700006, 28.722108138000067], [84.47620837400007, 28.72195487700003], [84.47561291900007, 28.721943758000066], [84.47507159700007, 28.72193364700007], [84.47453027600005, 28.72192353400004], [84.47398895400005, 28.721913418000042], [84.47344878100006, 28.721855583000035], [84.47296618500008, 28.721655604000034], [84.47259529900003, 28.72131449400007], [84.47222556400004, 28.720925666000028], [84.47142278100006, 28.720528736000063], [84.47094134400004, 28.72028103300005], [84.47051633900008, 28.71993890500005], [84.47009133600005, 28.71959677700005], [84.46960875800005, 28.71939678700005], [84.46906975100006, 28.719291217000034], [84.46852844500006, 28.719281081000076], [84.46798714000005, 28.719270942000037], [84.46744353400004, 28.719356237000056], [84.46695290700006, 28.719490261000033], [84.46646112800005, 28.71967200200004], [84.46623424700005, 28.72009740200008], [84.46606149400003, 28.720523816000025], [84.46556970900008, 28.720705553000073], [84.46502724600003, 28.720743119000076], [84.46443180300008, 28.72073195100006], [84.46389049200008, 28.720721796000078], [84.46334918200006, 28.72071163800007], [84.46280671800008, 28.720749196000043], [84.46226656100004, 28.720691317000046], [84.46189571500008, 28.720350180000025], [84.46158015600008, 28.71996234100004], [84.46120931500008, 28.71962120300003], [84.46089376000003, 28.719233363000058], [84.46087802100004, 28.719220691000032], [84.46067839300008, 28.719181579000065], [84.46013709200008, 28.71917140900007], [84.45959579100008, 28.719161237000037], [84.45905333500008, 28.719198780000056], [84.45851203500007, 28.719188603000077], [84.45796957900006, 28.719226142000025], [84.45772987600003, 28.719221634000064], [84.45771738200006, 28.719115104000025], [84.45754307600004, 28.71861910900003], [84.45755499600006, 28.718126617000053], [84.45756691500003, 28.71763412400003], [84.45767194600006, 28.717143383000064], [84.45777697600005, 28.716652642000042], [84.45778889300004, 28.716160149000075], [84.45780081100008, 28.71566765600005], [84.45781272800008, 28.715175164000073], [84.45782663100005, 28.714600589000042], [84.45784053400007, 28.71402601400007], [84.45775934200003, 28.71353177000003], [84.45777125900008, 28.713039277000064], [84.45740677400005, 28.712703945000044], [84.45704626400004, 28.712204447000033], [84.45668178400007, 28.711869113000034], [84.45631730600007, 28.711533778000046], [84.45595283100005, 28.711198443000058], [84.45558835800006, 28.710863106000033], [84.45513078200008, 28.710526016000074], [84.45476631400004, 28.71019067700007], [84.45459203400003, 28.70969468000004], [84.45455062300005, 28.70939328700007], [84.45469159400005, 28.70923474600005], [84.45491849400008, 28.70880936700007], [84.45530545400004, 28.708482477000075], [84.45569356700008, 28.70810786900006], [84.45618646100007, 28.70787844800003], [84.45652044500008, 28.70750281900007], [84.45685442600006, 28.707127188000072], [84.45702718900003, 28.706700786000056], [84.45715737200004, 28.705796192000037], [84.45749827200007, 28.705134255000075], [84.45767102800005, 28.704707851000023], [84.45784378300004, 28.704281447000028], [84.45796356800008, 28.703806308000026], [84.45813632000005, 28.70337990400003], [84.45836319200004, 28.702954516000034], [84.45864418400004, 28.702530145000026], [84.45892517300007, 28.702105773000028], [84.45936506300006, 28.701827604000073], [84.45969901600006, 28.701451965000047], [84.45998806800003, 28.700693568000077], [84.46020916200007, 28.700506763000078], [84.46054310700003, 28.700131122000073], [84.46087704900003, 28.699755479000032], [84.46110390200005, 28.699330085000042], [84.46133075200004, 28.698904691000052], [84.46155760100004, 28.698479296000073], [84.46194450100006, 28.698152383000036], [84.46227958400004, 28.697729019000064], [84.46250642600006, 28.69730362200005], [84.46284035200006, 28.696927973000072], [84.46334699200008, 28.696125909000045], [84.46345753100007, 28.696032504000073], [84.46384441700008, 28.69570558500004], [84.46423130000005, 28.69537866400003], [84.46451224600008, 28.69495427800007], [84.46468495500005, 28.69452786200003], [84.46502001400006, 28.69410448800005], [84.46519271900007, 28.69367807200007], [84.46552777300008, 28.693254697000043], [84.46586167500004, 28.692879039000047], [84.46614260700005, 28.692454648000023], [84.46663655400005, 28.692177464000054], [84.46707638300006, 28.691899266000064], [84.46756687800007, 28.691765232000023], [84.46800670200008, 28.691487030000076], [84.46834058900004, 28.69111136500004], [84.46872744100006, 28.690784429000075], [84.46966233700005, 28.69018131000007], [84.47027482500005, 28.689476674000048], [84.47060984500007, 28.689053285000057], [84.47094371500003, 28.68867761200005], [84.47127758300007, 28.688301938000052], [84.47155848100005, 28.68787753400005], [84.47178526200008, 28.687452117000078], [84.47195907400004, 28.686977971000033], [84.47223996500009, 28.686553564000064], [84.47257496700007, 28.686130168000034], [84.47280174000008, 28.68570475000007], [84.47308262400009, 28.685280341000066], [84.47337382100005, 28.684426469000073], [84.47337496700004, 28.684378751000054], [84.47360173200008, 28.683953330000065], [84.47361319200007, 28.683476148000068], [84.47357053900004, 28.682997956000065], [84.47341966300007, 28.682517743000062], [84.47337701200007, 28.68203955100006], [84.47328024900008, 28.681560348000062], [84.47323759800008, 28.68108215600006], [84.47314083700007, 28.68060295400005], [84.47293470800008, 28.680169447000026], [84.47278269200007, 28.67973695200004], [84.47237159000008, 28.678822221000075], [84.47237273600007, 28.678774503000056], [84.47227598000006, 28.67829529900007], [84.47201575000008, 28.67786078100005], [84.47175552200008, 28.67742626300003], [84.47154940500008, 28.67699275500007], [84.47145265300009, 28.676513552000074], [84.47130064700008, 28.676081055000054], [84.47131211400006, 28.675603874000046], [84.47126947200007, 28.675125682000044], [84.47122683100008, 28.67464748900005], [84.47107482800004, 28.67421499200003], [84.47086871900007, 28.673781484000074], [84.47071671900005, 28.673348987000054], [84.47067522700007, 28.672823076000043], [84.47048403100007, 28.67176923200003], [84.47048517700006, 28.67172151400007], [84.47022496900007, 28.67128699400007], [84.47001886900006, 28.670853485000066], [84.46992212800006, 28.67037428100008], [84.46977013500003, 28.66994178300007], [84.46967339600008, 28.669462578000037], [84.46968486600008, 28.66898539700003], [84.46969633700007, 28.668508216000077], [84.46970780700008, 28.66803103500007], [84.46977338100004, 28.667554866000046], [84.46978485000005, 28.667077685000038], [84.46979631900007, 28.66660050300004], [84.46975712600005, 28.66597915600005], [84.46966038900007, 28.66549995200006], [84.46961775500006, 28.66502175900007], [84.46952101900007, 28.664542555000025], [84.46942428400007, 28.66406335000005], [84.46916524300008, 28.663581111000042], [84.46890505800008, 28.663146589000064], [84.46875307800008, 28.662714090000065], [84.46861027600005, 28.66189984700003], [84.46855732300008, 28.661851117000026], [84.46846059300003, 28.66137191200005], [84.46841796500007, 28.660893719000057], [84.46837533700005, 28.660415526000065], [84.46827861000008, 28.659936321000032], [84.46812778300006, 28.65945610400007], [84.46803105700008, 28.658976899000038], [84.46798843100004, 28.658498706000046], [84.46778236100005, 28.658065195000063], [84.46715038800005, 28.657337277000067], [84.46699842100008, 28.65690477700008], [84.46673825900007, 28.656470252000076], [84.46658629600006, 28.65603775200003], [84.46643433300005, 28.655605252000043], [84.46633761700008, 28.655126046000078], [84.46618565600005, 28.654693546000033], [84.46603369700006, 28.654261045000055], [84.46582764200008, 28.653827532000037], [84.46567568500006, 28.65339503100006], [84.46552372900004, 28.652962530000025], [84.46537177400006, 28.652530029000047], [84.46521982100006, 28.65209752800007], [84.46506786800006, 28.651665027000035], [84.46486182200005, 28.651231513000027], [84.46470987200007, 28.65079901100006], [84.46450382800003, 28.650365496000063], [84.46435188000004, 28.64993299400004], [84.46430927100005, 28.649454801000047], [84.46432075700005, 28.64897762000004], [84.46433224200007, 28.648500440000078], [84.46434372700008, 28.64802325900007], [84.46435521200004, 28.64754607900005], [84.46436669600007, 28.647068898000043], [84.46448636600007, 28.64659374400003], [84.46460603500003, 28.646118589000025], [84.46467161000004, 28.645642421000048], [84.46468309200003, 28.64516524000004], [84.46490979400005, 28.64473982900006], [84.46497536700008, 28.644263661000025], [84.46504093800007, 28.643787492000058], [84.46521354400005, 28.643361067000058], [84.46527911400005, 28.642884899000023], [84.46534468300007, 28.642408730000056], [84.46546434100009, 28.641933574000063], [84.46558399900005, 28.641458417000024], [84.46570365500008, 28.64098326000004], [84.46576922000008, 28.640507091000075], [84.46588887400009, 28.640031934000035], [84.46606261700003, 28.639557789000037], [84.46612817900007, 28.639081619000024], [84.46624782900005, 28.63860646200004], [84.46642042000008, 28.638180034000072], [84.46664709800007, 28.63775461800003], [84.46676674400004, 28.63727945900007], [84.46688638800003, 28.63680430100004], [84.46700603200009, 28.63632914200008], [84.46707158700008, 28.635852971000077], [84.46713714100008, 28.635376800000074], [84.46730972100005, 28.63495037100006], [84.46742936000004, 28.63447521100005], [84.46738673800007, 28.63399701700007], [84.46734411600005, 28.63351882300003], [84.46713808900006, 28.633085313000038], [84.46701836400007, 28.63300253500006], [84.46645592500005, 28.63299201500007], [84.46614954500006, 28.632986283000037], [84.46588421700005, 28.632981319000066], [84.46544634000009, 28.633351593000043], [84.46529280000004, 28.633790266000062], [84.46499633100007, 28.634226264000063], [84.46477132300004, 28.63466359800003], [84.46464438500004, 28.63491031800004], [84.46454631300008, 28.635100932000057], [84.46439276700005, 28.63553960400003], [84.46423921900004, 28.63597827500007], [84.46401420400008, 28.63641560800005], [84.46385815100007, 28.636718906000056], [84.46378918700003, 28.63685294000004], [84.46356416800006, 28.63729027200003], [84.46348056300008, 28.63779333000008], [84.46332700800008, 28.638231999000027], [84.46317345100005, 28.638670669000078], [84.46294842500004, 28.639107999000032], [84.46275414600007, 28.63953711000005], [84.46270677800004, 28.639590430000055], [84.46242599100003, 28.640014824000048], [84.46225338000005, 28.640441246000023], [84.46213371000005, 28.64091639800006], [84.46206812800006, 28.641392565000046], [84.46178733300007, 28.64181695700006], [84.46161471600004, 28.642243377000057], [84.46138800800009, 28.642668783000033], [84.46121538800008, 28.64309520200004], [84.46104276800008, 28.643521621000048], [84.46092308700008, 28.643996772000037], [84.46075046300007, 28.644423191000044], [84.46068487100007, 28.644899355000064], [84.46056518700004, 28.645374506000053], [84.46054203800009, 28.645390151000072], [84.46050345100008, 28.645622269000057], [84.46049129400006, 28.646126664000064], [84.46040766400006, 28.646629718000042], [84.46039550500006, 28.64713411300005], [84.46038334700006, 28.647638508000057], [84.46022976100005, 28.648077171000068], [84.46014612800008, 28.648580225000046], [84.46008545200004, 28.64894518600005], [84.46006553300003, 28.648957180000025], [84.45956065400009, 28.64913694100005], [84.45912572600008, 28.649381090000077], [84.45862084300006, 28.649560846000043], [84.45818591200003, 28.649804992000043], [84.45781941000007, 28.650176577000025], [84.45738295300004, 28.65048376900006], [84.45701974700006, 28.650852005000047], [84.45701644600007, 28.650855352000065], [84.45658150600008, 28.65109949200007], [84.45640203000005, 28.651163387000054], [84.45607661100007, 28.65127923800003], [84.45567147500003, 28.651473473000067], [84.45549567000006, 28.65164678600007], [84.45512915200004, 28.652018363000025], [84.45468963200005, 28.652451643000063], [84.45425163300007, 28.65282187300005], [84.45381667800007, 28.65306600300005], [84.45337867300003, 28.653436230000068], [84.45294219000004, 28.653743406000046], [84.45252867700003, 28.654034413000034], [84.45242660200006, 28.654364480000027], [84.45213001600007, 28.654800441000077], [84.45195787300008, 28.65513485100007], [84.45190490600004, 28.655237747000058], [84.45160984100005, 28.655610657000068], [84.45138472700006, 28.65604796200006], [84.45108965800006, 28.656420871000023], [84.45086453900007, 28.656858174000035], [84.45063941900008, 28.657295477000048], [84.45052876600005, 28.65743531800007], [84.45034434300004, 28.65766838500008], [84.45004926600006, 28.658041291000075], [84.44982413900004, 28.65847859200005], [84.44967049100006, 28.65891723900006], [84.44951684100005, 28.65935588700006], [84.44938239600003, 28.65973970300007], [84.44914263800007, 28.660042687000043], [84.44884754900005, 28.66041559000007], [84.44848097600004, 28.66078714400004], [84.44818282700004, 28.66128614300004], [84.44802916700007, 28.661724788000072], [84.44773406900003, 28.662097687000028], [84.44765035900008, 28.66260072800003], [84.44735525800007, 28.662973627000042], [84.44713010800007, 28.663410922000025], [84.44683500200006, 28.66378381900006], [84.44653989300008, 28.664156716000036], [84.44624478300005, 28.664529611000034], [84.44601962500008, 28.66496690400004], [84.44579446500006, 28.665404196000054], [84.44549781800004, 28.66584013800008], [84.44520269900005, 28.66621303100004], [84.44483609200006, 28.666584573000023], [84.44454096900006, 28.666957464000063], [84.44424584300003, 28.667330355000047], [84.44395071500008, 28.66770324400005], [84.44365558500004, 28.668076133000056], [84.44336045200004, 28.66844902100007], [84.44316513400008, 28.668736032000027], [84.44306378600004, 28.668884956000056], [84.44276865000006, 28.669257843000025], [84.44252472000005, 28.669505039000057], [84.44240202400005, 28.669629377000035], [84.44196390800005, 28.669999559000075], [84.44166876400004, 28.67037244200003], [84.44123217500004, 28.67067957300003], [84.44100914000006, 28.67090558500007], [84.44085801500006, 28.67101725400005], [84.44080391100005, 28.671016231000067], [84.44001743200005, 28.672194828000045], [84.43984350900007, 28.672668927000075], [84.43956253400006, 28.67309326000003], [84.43933566300007, 28.67351861700007], [84.43916289600008, 28.673944998000024], [84.43899012700007, 28.674371378000046], [84.43876325000008, 28.67479673400004], [84.43848226500006, 28.675221065000073], [84.43844560800005, 28.675320981000027], [84.43825143200007, 28.675606264000066], [84.43795625800004, 28.67597913800006], [84.43766108200003, 28.676352010000073], [84.43743586000005, 28.67678928400005], [84.43706918800007, 28.677160800000024], [84.43677400500007, 28.67753367000006], [84.43647882100004, 28.677906540000038], [84.43611214100008, 28.678278053000042], [84.43581695200004, 28.67865092100004], [84.43552176000009, 28.679023787000062], [84.43515507300003, 28.67939529800003], [84.43485987700006, 28.679768163000062], [84.43442322900006, 28.680075268000053], [84.43405653400004, 28.680446775000064], [84.43376383100008, 28.680816480000033], [84.43336962800004, 28.680816479000043], [84.43295276600008, 28.681232652000062], [84.43224884000006, 28.682215984000038], [84.43202191700004, 28.682641325000077], [84.43174088200004, 28.683065639000063], [84.43151395600006, 28.683490978000066], [84.43123291600006, 28.683915290000073], [84.43089543300005, 28.68443400700005], [84.43056144200006, 28.684809573000052], [84.43017450400004, 28.68513639300005], [84.42978756300005, 28.685463213000048], [84.42973228500006, 28.685509901000046], [84.42900667600009, 28.686403146000032], [84.42877973000003, 28.68682848000003], [84.42849867000007, 28.687252785000055], [84.42810471600006, 28.68786589700005], [84.42787776300008, 28.688291229000072], [84.42770492100004, 28.688717589000078], [84.42742385100007, 28.689141891000077], [84.42708983300008, 28.689517446000025], [84.42680875800005, 28.689941746000045], [84.42680759000007, 28.689989463000074], [84.42624076200008, 28.691028926000058], [84.42601379400008, 28.691454254000064], [84.42573271000003, 28.69187855100006], [84.42545162300007, 28.692302848000054], [84.42517053300008, 28.69272714300007], [84.42499767200007, 28.69315349900006], [84.42476952500004, 28.693626540000025], [84.42454254500007, 28.694051865000063], [84.42426144700005, 28.694476158000043], [84.42408857800007, 28.694902512000056], [84.42391570900008, 28.69532886500008], [84.42368872100008, 28.695754188000024], [84.42335466700007, 28.696129731000042], [84.42307355800006, 28.696554021000054], [84.42279244600007, 28.696978311000066], [84.42256545000004, 28.697403631000043], [84.42217258900007, 28.697969004000072], [84.42194558800009, 28.69839432200007], [84.42166446600004, 28.698818608000067], [84.42122332900004, 28.69914436600004], [84.42114359400006, 28.699194754000075], [84.42108174300006, 28.69910899100006], [84.42080654700004, 28.69866220800003], [84.42067436400004, 28.698218152000038], [84.42047067600004, 28.697772732000033], [84.42012243400006, 28.697387631000026], [84.41970269000007, 28.697001164000028], [84.41935445300004, 28.696616061000043], [84.41893626300003, 28.69616654600003], [84.41851652800005, 28.695780076000062], [84.41809524800004, 28.695456652000075], [84.41767397000007, 28.695133227000042], [84.41725114700006, 28.694872848000045], [84.41682832500004, 28.69461246700007], [84.41640550600005, 28.694352085000048], [84.41598268900003, 28.694091702000037], [84.41548837200008, 28.693829951000055], [84.41499405800005, 28.693568199000026], [84.41449819600007, 28.693369492000045], [84.41392928400006, 28.693232462000026], [84.41343497700007, 28.69297070500005], [84.41294067200005, 28.69270894500005], [84.41244481900003, 28.69251023100003], [84.41187436300004, 28.692436240000063], [84.41130235600008, 28.692425293000042], [84.41065884900007, 28.692412974000035], [84.41022363300004, 28.692656946000056], [84.41013971000007, 28.693159948000073], [84.41012728800007, 28.69366432000004], [84.40990191200007, 28.69410153700005], [84.40946358100007, 28.694471598000064], [84.40902524700005, 28.69484165800003], [84.40922888000006, 28.695287092000058], [84.40980245400004, 28.69523500300005], [84.41051903400006, 28.695185649000052], [84.41109260800005, 28.69513355400005], [84.41166618100004, 28.695081456000025], [84.41223820200008, 28.695092403000046], [84.41280867300009, 28.69516639300008], [84.41338069500006, 28.69517733500004], [84.41402267000007, 28.69525268800004], [84.41459159300007, 28.695389718000058], [84.41508746400007, 28.69558842600003], [84.41551028500004, 28.695848812000065], [84.41593155800007, 28.696172243000035], [84.41635283300008, 28.69649567400006], [84.41677566000004, 28.696756056000027], [84.41719694100004, 28.697079484000028], [84.41761822400008, 28.69740291100004], [84.41803951000009, 28.697726337000063], [84.41846079800007, 28.69804976100005], [84.41888054100008, 28.698436232000063], [84.41908422300008, 28.698881653000058], [84.41921640000004, 28.69932571100003], [84.41920401800007, 28.69983008500003], [84.41919163500006, 28.70033446000008], [84.41918607400004, 28.700560971000073], [84.41907523500004, 28.700631013000077], [84.41863525400004, 28.70090904400007], [84.41863408300009, 28.700956760000054], [84.41812943200006, 28.70166320100003], [84.41768944400008, 28.701941229000056], [84.41735534900005, 28.702316755000027], [84.41702125000006, 28.702692280000065], [84.41663420300006, 28.703019054000038], [84.41614360400007, 28.703152895000073], [84.41575655200006, 28.703479666000078], [84.41526243000004, 28.70375665100005], [84.41492832000006, 28.704132170000037], [84.41454126100007, 28.704458937000027], [84.41425714000007, 28.704778264000026], [84.41421718300006, 28.704794933000073], [84.41364045400007, 28.70497313100003], [84.41313212900008, 28.705278788000044], [84.41262069600003, 28.705710535000037], [84.41232534300008, 28.706083340000077], [84.41202998700004, 28.706456143000025], [84.41173462900008, 28.70682894600003], [84.41136775800004, 28.707200379000028], [84.41107084300006, 28.707636227000023], [84.41077547800006, 28.70800902700006], [84.41048011100008, 28.70838182700004], [84.41018318800008, 28.708817672000066], [84.40988781700008, 28.709190470000067], [84.40959088900007, 28.709626313000058], [84.40922400100004, 28.709997739000073], [84.40892706800008, 28.71043358000003], [84.40856017400006, 28.710805004000065], [84.40812176400004, 28.71117505600006], [84.40768490700003, 28.711482060000037], [84.40724804700005, 28.711789062000037], [84.40673811400006, 28.71215773700004], [84.40608670600005, 28.71246061900007], [84.40564983800004, 28.712767615000075], [84.40520985200004, 28.71320070200005], [84.40491445100008, 28.713573487000076], [84.40461593200007, 28.71407236300007], [84.40453195700007, 28.714575358000047], [84.40437802200006, 28.715013933000023], [84.40422408600006, 28.715452508000055], [84.40399863200008, 28.715889710000056], [84.40370166000008, 28.716325537000046], [84.40351894500003, 28.716679852000027], [84.40319060000007, 28.716796507000026], [84.40285640300004, 28.717171990000054], [84.40262927900005, 28.71759726700003], [84.40250922600006, 28.71807233900006], [84.40217502300004, 28.71844782000005], [84.40184081800004, 28.718823300000054], [84.40150661000007, 28.719198779000067], [84.40127947500008, 28.719624053000075], [84.40105233800006, 28.720049327000027], [84.40087932700004, 28.720475641000064], [84.40119465200007, 28.72086360700007], [84.40150997900008, 28.72125157200003], [84.40149817400004, 28.72172872400006], [84.40203710300005, 28.721834560000048], [84.40252780400004, 28.721700777000024], [84.40301968500006, 28.721519277000027], [84.40356215300005, 28.721481961000052], [84.40474709500006, 28.721743409000055], [84.40485653200005, 28.721697772000027], [84.40604265900004, 28.72191149300005], [84.40653453500005, 28.721729980000077], [84.40697463700008, 28.72145199600004], [84.40725588300006, 28.72102774900003], [84.40726766100005, 28.720550595000077], [84.40727944000008, 28.720073441000068], [84.40734534600006, 28.719597325000052], [84.40735712300005, 28.719120171000043], [84.40729641900003, 28.718818639000062], [84.40743914700005, 28.718541851000055], [84.40766614900008, 28.718041597000024], [84.40782007500007, 28.717603018000034], [84.40804551800005, 28.71716580900005], [84.40819944100008, 28.71672722900007], [84.40835336300006, 28.716288649000035], [84.40850728400005, 28.715850068000066], [84.40880268100005, 28.71547727500007], [84.40923799800004, 28.715233315000035], [84.40967331400003, 28.714989353000078], [84.41011018100005, 28.71468234300005], [84.41032472900008, 28.71468645400006], [84.41076407500003, 28.714694869000027], [84.41089685600008, 28.714697412000078], [84.41154205300006, 28.71464669200003], [84.41201335600005, 28.714707817000033], [84.41211262800005, 28.71472069200007], [84.41253396100007, 28.715044138000053], [84.41295529600006, 28.715367582000056], [84.41344970300008, 28.71562934700006], [84.41401562900006, 28.715892479000047], [84.41451314400007, 28.716028148000078], [84.41501841800005, 28.715848583000025], [84.41510234500004, 28.71534557900003], [84.41511475500005, 28.714841207000063], [84.41512871500004, 28.71427378900006], [84.41514112500005, 28.713769417000037], [84.41529656400007, 28.713267780000024], [84.41530897200005, 28.712763408000058], [84.41531859900005, 28.712372045000052], [84.41593359600006, 28.711694028000068], [84.41632032000007, 28.711633495000058], [84.41655107900004, 28.711714855000025], [84.41704857900004, 28.71185051300006], [84.41761914400007, 28.71192448900007], [84.41804203400005, 28.712184871000034], [84.41839031300003, 28.71256998000007], [84.41866707900004, 28.712953723000055], [84.41894229800005, 28.71340051100003], [84.41929058400007, 28.71378561800003], [84.41978809800008, 28.713921267000046], [84.41994506400005, 28.713356576000024], [84.42002896500009, 28.712853567000025], [84.42004135000008, 28.71234919400007], [84.42005373400008, 28.711844820000067], [84.42006611900007, 28.711340446000065], [84.42010074700005, 28.711132831000043], [84.42015001700008, 28.710837436000077], [84.42030542700007, 28.710335791000034], [84.42040039500006, 28.710151551000024], [84.42036688200005, 28.709773684000027], [84.42037859600003, 28.709296524000024], [84.42039148100008, 28.708771649000028], [84.42045731700006, 28.708295521000025], [84.42045848800007, 28.708247805000042], [84.42069488900006, 28.70744076400007], [84.42102899100007, 28.70706523000007], [84.42141604200003, 28.706738444000052], [84.42169718800005, 28.706314160000034], [84.42213718600004, 28.706036119000032], [84.42263013200005, 28.705806825000025], [84.42307012500004, 28.705528781000055], [84.42361251100004, 28.705491378000033], [84.42415372600004, 28.705501690000062], [84.42469260300004, 28.70560743200008], [84.42495269000005, 28.706042031000038], [84.42521277800006, 28.706476630000054], [84.42536462400005, 28.70690916800004], [84.42568000700004, 28.707297081000036], [84.42605068400007, 28.707638307000025], [84.42642136400008, 28.707979532000024], [84.42679204600006, 28.708320757000024], [84.42713308100008, 28.70855656300006], [84.42714554300005, 28.708573840000042], [84.42734927700008, 28.709019253000065], [84.42769758200006, 28.70940433900006], [84.42804589000008, 28.709789425000054], [84.42846725700008, 28.71011282300003], [84.42881557000004, 28.710497907000047], [84.42923694300003, 28.710821302000056], [84.42973445900003, 28.710956915000054], [84.42983696900006, 28.710967925000034], [84.42986700400007, 28.711004864000074], [84.43008448300003, 28.711272327000074], [84.43005999100006, 28.712273694000032], [84.42997613900008, 28.71277671200005], [84.42989228500005, 28.713279731000057], [84.42973845700004, 28.71371834200005], [84.42965460100004, 28.714221360000067], [84.42957074400005, 28.714724378000028], [84.42948688600006, 28.715227395000056], [84.42940302700003, 28.715730413000074], [84.42953217900003, 28.716300557000068], [84.42980899700007, 28.716684280000038], [84.43023039500008, 28.717007674000058], [84.43065025500005, 28.717394114000058], [84.43107165900005, 28.717717506000042], [84.43149306600003, 28.718040897000037], [84.43184141500006, 28.71842597500006], [84.43211670500006, 28.71887274100004], [84.43239199700008, 28.719319506000033], [84.43252425000009, 28.719763554000053], [84.43280108700003, 28.720147272000077], [84.43314944700006, 28.720532347000074], [84.43349781000006, 28.72091742200007], [84.43341396300008, 28.721420442000067], [84.43291022900007, 28.721537029000046], [84.43233651300005, 28.72158920800007], [84.43169590000008, 28.721450884000035], [84.43112372700006, 28.721440011000027], [84.43075686500003, 28.721811497000033], [84.43039000000005, 28.72218298200005], [84.43009311300005, 28.722618872000055], [84.42986774500008, 28.72305612200006], [84.42971389900003, 28.723494732000063], [84.42970155500007, 28.723999109000033], [84.42961768700007, 28.72450212600006], [84.42960225500008, 28.725132597000027], [84.42958990900007, 28.725636973000064], [84.42972215600008, 28.726081024000052], [84.42977979300008, 28.726649808000047], [84.42983897300007, 28.727155545000073], [84.42997122200006, 28.727599595000072], [84.43031959400008, 28.72798467800004], [84.43059644100003, 28.72836840100007], [84.43094481800006, 28.72875348200006], [84.43079096500009, 28.72919209300005], [84.43028564800005, 28.729371714000024], [84.42984876900005, 28.729678788000058], [84.42941034500006, 28.73004890800007], [84.42897346100006, 28.730355979000024], [84.42860655800007, 28.730727456000068], [84.42838116400003, 28.73116470100007], [84.42836881000005, 28.73166907700005], [84.42835645500008, 28.73217345300003], [84.42834410000006, 28.732677829000068], [84.42847634800006, 28.733121880000056], [84.42853552200006, 28.733627617000025], [84.42866777200004, 28.73407166800007], [84.42894462800007, 28.734455394000065], [84.42922148500008, 28.73483912000006], [84.42971911300003, 28.73497474000004], [84.43036289000008, 28.734986984000045], [84.43093513700006, 28.734997865000025], [84.43122537500005, 28.734835179000072], [84.43121971800008, 28.735066352000047], [84.43172352000005, 28.734949776000065], [84.43223040500004, 28.734707103000062], [84.43266575800004, 28.73446307000006], [84.43310265000008, 28.734155988000055], [84.43353954000008, 28.73384890400007], [84.43404487500004, 28.733669271000053], [84.43454866800005, 28.733552684000074], [84.43505246000007, 28.73343609400007], [84.43562470000006, 28.733446955000034], [84.43619694100005, 28.733457814000076], [84.43677072200006, 28.733405622000078], [84.43734450200003, 28.733353429000033], [84.43778291600006, 28.732983283000067], [84.43782048300005, 28.73293585700003], [84.43825015500005, 28.73284127100004], [84.43863725900007, 28.732514439000056], [84.43897138700004, 28.732138864000035], [84.43930551400007, 28.731763287000035], [84.43963963800007, 28.731387709000046], [84.43997375900005, 28.731012131000057], [84.44041498500007, 28.73068631800004], [84.44085504600008, 28.73040822100006], [84.44124213200007, 28.73008138000006], [84.44173632200005, 28.729804305000073], [84.44212340400009, 28.729477461000045], [84.44235040300003, 28.729052110000055], [84.44263153500003, 28.728627782000046], [84.44285853100007, 28.728202429000078], [84.44329857500009, 28.727924323000025], [84.44379158800007, 28.72769495500006], [84.44423162800007, 28.72741684500005], [84.44472579800004, 28.72713975700003], [84.44516583200004, 28.726861644000053], [84.44560702500007, 28.726535813000055], [84.44614835900006, 28.72654604300004], [84.44657446400004, 28.726840527000036], [84.44672642200004, 28.72727304700004], [84.44682308700004, 28.727752260000045], [84.44691975300003, 28.72823147400004], [84.44690815100006, 28.72870864300006], [84.44698277300006, 28.730094476000033], [84.44697465100006, 28.730428494000023], [84.44696304800004, 28.730905662000055], [84.44695144400004, 28.73138283000003], [84.44683156900004, 28.73185795300003], [84.44665871600006, 28.732284336000077], [84.44653883700005, 28.732759458000032], [84.44636598100004, 28.733185840000033], [84.44597773700008, 28.73356041200003], [84.44559065100003, 28.733887266000067], [84.44525653800008, 28.73426285900007], [84.44476349500007, 28.734492230000058], [84.44437640200005, 28.73481908000008], [84.44398930600005, 28.735145929000055], [84.44349625700005, 28.73537529500004], [84.44295023000006, 28.735555918000045], [84.44245950200008, 28.73568984600007], [84.44191579700004, 28.73577503100006], [84.44137325500003, 28.73581249700004], [84.44077773800007, 28.735801219000052], [84.44018222200003, 28.73578993900003], [84.43964084300006, 28.735779682000043], [84.43904532800008, 28.735768396000026], [84.43850395000004, 28.735758134000037], [84.43742236000008, 28.735689888000024], [84.43671507500005, 28.73581968800005], [84.43622317400008, 28.736001309000073], [84.43573010500006, 28.736230645000035], [84.43523936700007, 28.73636454700005], [84.43474862700003, 28.73649844600004], [84.43425788600007, 28.736632344000043], [84.43376597800005, 28.73681395600005], [84.43327406800006, 28.736995566000076], [84.43278215600003, 28.737177175000056], [84.43234204600003, 28.737455242000067], [84.43185013100003, 28.737636847000033], [84.43113815700008, 28.737957481000024], [84.43085695200006, 28.738381780000054], [84.43046980300005, 28.73870858600003], [84.43018859400007, 28.739132883000025], [84.42974730100008, 28.739458658000046], [84.42930717400003, 28.73973671400006], [84.42881524300003, 28.73991830700004], [84.42827151000006, 28.740003435000062], [84.42778074600005, 28.740137307000055], [84.42728998100006, 28.740271178000057], [84.42679804500006, 28.740452763000064], [84.42635790600008, 28.74073080900007], [84.42591776600005, 28.74100885300004], [84.42542465400004, 28.741238149000026], [84.42498450900007, 28.741516190000027], [84.42449256300006, 28.741697766000073], [84.42350398100007, 28.742251775000057], [84.42311679600004, 28.742578558000048], [84.42272960900004, 28.74290533900006], [84.42228945000005, 28.743183371000043], [84.42200819500005, 28.743607647000033], [84.42188819000006, 28.744082739000078], [84.42193060700004, 28.744560930000034], [84.42230139300005, 28.74490217300007], [84.42278163800006, 28.745197764000068], [84.42320774200005, 28.745492322000075], [84.42368916400005, 28.745740195000053], [84.42422707200006, 28.745893667000075], [84.42471084000005, 28.74604610500006], [84.42519461000006, 28.74619854100007], [84.42567838100007, 28.74635097500004], [84.42616098300005, 28.746551124000064], [84.42664241700004, 28.746798987000034], [84.42718267600003, 28.746857016000035], [84.42772410700007, 28.746867327000075], [84.42826436700005, 28.746925352000062], [84.42880462900007, 28.746983374000024], [84.42934372200006, 28.747089110000047], [84.42988398600005, 28.74714712900004], [84.43042541800008, 28.747157429000026], [84.43102216300008, 28.747121040000025], [84.43156359600005, 28.747131336000052], [84.43210503000006, 28.747141629000055], [84.43264646300008, 28.74715192000008], [84.43318789700004, 28.747162209000066], [84.43372816500005, 28.74722021200006], [84.43426843300006, 28.747278213000072], [84.43469458100003, 28.74757273700004], [84.43501011000006, 28.747960636000073], [84.43543509700004, 28.748302874000046], [84.43575063100008, 28.748690771000042], [84.43617678900006, 28.748985291000054], [84.43671590300005, 28.749090999000032], [84.43715605300008, 28.748812920000034], [84.43738312100004, 28.74838758100003], [84.43777028800008, 28.74806075600003], [84.43815745200004, 28.747733930000038], [84.43843865700006, 28.747309616000052], [84.43877283800003, 28.746934045000046], [84.43915999500007, 28.74660721500004], [84.43954831400004, 28.74623266800006], [84.43998961000005, 28.745906862000027], [84.44042973800003, 28.745628771000042], [84.44092051600006, 28.745494853000025], [84.44146194500007, 28.74550510800003], [84.44200104800007, 28.745610794000072], [84.44208490500006, 28.746614892000025], [84.44202843500005, 28.746709300000077], [84.44185553400007, 28.74713567300006], [84.44157434300007, 28.747559994000028], [84.44124016900008, 28.747935573000063], [84.44095897300008, 28.748359893000043], [84.44073192000008, 28.74878523800004], [84.44039773900005, 28.74916081500004], [84.44022482700007, 28.749587185000053], [84.43999776700008, 28.75001252800007], [84.43977070600005, 28.75043787100003], [84.43948949700007, 28.750862187000052], [84.43904934300008, 28.75114027400008], [84.43855737100006, 28.75132189900006], [84.43806656300006, 28.751455806000024], [84.43752277400006, 28.75154096800003], [84.43698131500008, 28.751530695000042], [84.43649050500005, 28.75166459600007], [84.43529113000005, 28.751975997000045], [84.43512635800005, 28.752068345000055], [84.43463437600008, 28.75224995600007], [84.43414356000005, 28.75238384800008], [84.43365274300004, 28.75251773800005], [84.43316075700005, 28.752699343000074], [84.43266643300007, 28.752976378000028], [84.43217327500008, 28.753205695000077], [84.43168011500006, 28.753435010000032], [84.43118695300006, 28.753664323000066], [84.43069612600004, 28.75379820200004], [84.43020413000005, 28.753979796000067], [84.42971096200006, 28.75420910300005], [84.42916715400008, 28.754294230000028], [84.42867398300007, 28.754523533000054], [84.42818315000005, 28.754657402000078], [84.42784890700005, 28.75503294300006], [84.42751466100003, 28.755408483000053], [84.42723338900004, 28.75583276900005], [84.42706041100007, 28.75625911800006], [84.42688743200006, 28.75668546600008], [84.42671445000008, 28.75711181400004], [84.42659444500003, 28.757586909000054], [84.42641209300007, 28.758394984000063], [84.42640858000004, 28.758538131000023], [84.42634272100008, 28.759014258000036], [84.42627686100008, 28.75949038500005], [84.42631930000005, 28.759968575000073], [84.42625343800006, 28.76044470100004], [84.42608044700006, 28.76087104800007], [84.42584744700008, 28.761534941000036], [84.42562030200008, 28.76196025400003], [84.42507410700006, 28.76214079300007], [84.42453142800008, 28.76217818200007], [84.42398874800006, 28.762215570000023], [84.42344724000003, 28.762205239000025], [84.42290573200006, 28.762194906000047], [84.42236422500008, 28.762184571000034], [84.42182271800004, 28.762174233000053], [84.42132949500007, 28.762403506000055], [84.42088924700005, 28.76268152700004], [84.42044899600006, 28.762959546000047], [84.42022182600004, 28.763384849000033], [84.42010178200007, 28.763859935000028], [84.41992876000006, 28.76428627200005], [84.41986286600007, 28.76476239300007], [84.41985112300006, 28.765239548000068], [84.42011131600003, 28.76567416200004], [84.42085536300004, 28.766261232000033], [84.42133921700008, 28.766413687000068], [84.42187839900004, 28.76651945900005], [84.42241992800007, 28.766529797000032], [84.42296145800003, 28.766540134000024], [84.42350298800005, 28.766550468000048], [84.42404451800007, 28.766560800000036], [84.42458839300008, 28.76647569800008], [84.42513226700004, 28.76639059400003], [84.42562550200006, 28.76616130800005], [84.42611756500008, 28.765979736000077], [84.42655781500008, 28.765701698000044], [84.42704987400003, 28.765520123000044], [84.42749012000007, 28.765242082000043], [84.42798217500007, 28.76506050200004], [84.42842241700004, 28.76478245800007], [84.42880967400004, 28.76445566500007], [84.42930406300007, 28.76417864900003], [84.42974429800006, 28.763900599000067], [84.43018453100007, 28.763622549000047], [84.43062476100005, 28.76334449600006], [84.43111914000008, 28.763067473000035], [84.43161234900003, 28.762838163000026], [84.43205257200003, 28.762560105000034], [84.43259642200007, 28.762474970000028]], [[84.43690030800008, 28.728232775000038], [84.43689697900004, 28.728234004000058], [84.43690771000007, 28.727794403000075], [84.43706307300005, 28.727292737000028], [84.43714844800007, 28.726726666000047], [84.43716075800006, 28.726222286000052], [84.43724613100005, 28.72565621600006], [84.43725844000005, 28.725151836000066], [84.43734227300007, 28.724648812000055], [84.43735458000003, 28.72414443200006], [84.43750839700004, 28.72370581200005], [84.43780679600007, 28.723206856000047], [84.43817517800005, 28.722772302000067], [84.43847049600004, 28.72239943900007], [84.43890578200006, 28.72215538000006], [84.43934414100005, 28.721785225000076], [84.43949794500008, 28.72134660200004], [84.43958176200005, 28.72084357600005], [84.43959405800007, 28.720339195000065], [84.43960635200006, 28.719834814000023], [84.43961864700003, 28.71933043300004], [84.43963094100008, 28.718826051000065], [84.43971629200007, 28.71825997700006], [84.43972858500007, 28.717755596000075], [84.43974087800007, 28.717251214000044], [84.43975317100006, 28.71674683300006], [84.43962088900008, 28.716302790000043], [84.43941709000006, 28.715857392000032], [84.43914023800005, 28.715473687000042], [84.43893644200006, 28.71502828900003], [84.43866113100006, 28.714581536000026], [84.43838582200004, 28.71413478200003], [84.43811051500006, 28.713688028000036], [84.43783367300006, 28.713304320000077], [84.43755683300003, 28.71292061300005], [84.43713388700007, 28.71266028900004], [84.43663788900005, 28.712461655000027], [84.43614189400006, 28.712263019000034], [84.43586506200006, 28.71187930800005], [84.43566128700007, 28.711433906000025], [84.43565758600005, 28.711402298000053], [84.43566282500007, 28.711370859000056], [84.43574664900007, 28.710867835000045], [84.43583047200008, 28.710364811000034], [84.43584278000003, 28.70986043100004], [84.43585508800004, 28.709356050000054], [84.43586739500006, 28.708851670000058], [84.43587970200008, 28.708347289000073], [84.43584204000007, 28.708025586000076], [84.43584345500005, 28.70796759700005], [84.43580097500006, 28.707489405000047], [84.43575849400008, 28.707011213000044], [84.43555248200005, 28.70657765800007], [84.43529234900006, 28.706143076000046], [84.43497693200004, 28.705755184000054], [84.43466151600006, 28.705367291000073], [84.43466268100008, 28.705319574000043], [84.43375192900004, 28.704920383000058], [84.43326949500005, 28.704720271000042], [84.43273061100007, 28.704614563000064], [84.43219172800008, 28.70450885300005], [84.43170813300009, 28.70435645300006], [84.43116925300006, 28.70425073900003], [84.43068566100004, 28.704098335000026], [84.43025969200005, 28.703803809000078], [84.42977727100003, 28.703603686000065], [84.42929601900005, 28.703355845000033], [84.42892534400005, 28.703014627000073], [84.42855467200008, 28.702673409000056], [84.42840281800005, 28.70224087400004], [84.42836037200004, 28.701762682000037], [84.42837204500006, 28.701285518000077], [84.42838371800008, 28.70080835500005], [84.42850363000008, 28.70033325000003], [84.42862353900006, 28.699858145000064], [84.42874344800003, 28.699383039000054], [84.42886335500003, 28.698907933000044], [84.42914444900003, 28.698483630000055], [84.42914561600008, 28.698435914000072], [84.42998655000008, 28.69725843300006], [84.43032175100006, 28.696835156000077], [84.43038753100006, 28.696359020000045], [84.43050742600008, 28.695883912000056], [84.43078850400008, 28.695459604000064], [84.43101546400004, 28.69503426800003], [84.43108123800005, 28.694558131000065], [84.43125407800005, 28.694131766000055], [84.43142691700007, 28.693705401000045], [84.43165386900006, 28.69328006300003], [84.43188082000006, 28.692854725000075], [84.43216188400004, 28.692430414000057], [84.43233471500008, 28.69200404700007], [84.43233588000004, 28.69195633000004], [84.43273448800005, 28.69115233900004], [84.43296142900004, 28.69072699900005], [84.43313425400004, 28.690300630000024], [84.43330824200007, 28.689826545000074], [84.43337400100006, 28.689350406000074], [84.43349387300003, 28.688875293000024], [84.43377491800004, 28.68845097700006], [84.43410891000008, 28.688075404000074], [84.43444406400005, 28.687652112000023], [84.43472626600004, 28.68718007700005], [84.43472743000007, 28.687132360000078], [84.43539888700008, 28.686238056000036], [84.43573286600008, 28.685862478000047], [84.43606684200006, 28.68548689800008], [84.43645492800005, 28.68511234300007], [84.43668183900007, 28.68468699400006], [84.43701697100005, 28.684263694000038], [84.43735093800007, 28.683888111000044], [84.43773785100007, 28.683561268000062], [84.43807297500007, 28.68313796600006], [84.43840693400006, 28.682762379000053], [84.43879500100007, 28.682387816000073], [84.43912895500006, 28.68201222700003], [84.43946290700006, 28.681636637000054], [84.43979685600004, 28.681261047000078], [84.44003942800003, 28.680816479000043], [84.44045629000004, 28.680400306000024], [84.44097030200004, 28.679755603000046], [84.44109012600006, 28.679280481000035], [84.44131700400004, 28.678855121000026], [84.44154388100003, 28.678429762000064], [84.44182486400007, 28.678005424000048], [84.44205173700004, 28.67758006300005], [84.44233271600007, 28.677155725000034], [84.44255958500008, 28.676730363000047], [84.44256074400005, 28.676682646000074], [84.44350955400006, 28.67550710200004], [84.44379052100004, 28.675082760000066], [84.44401737900006, 28.674657395000054], [84.44419012800006, 28.67423100700006], [84.44447108900005, 28.67380666200006], [84.44469794100007, 28.67338129500007], [84.44492594900004, 28.67290821100005], [84.44520690300004, 28.67248386400007], [84.44543374900007, 28.672058496000034], [84.44576996100005, 28.67158745200004], [84.44605206500006, 28.671115386000054], [84.44605322300004, 28.671067669000024], [84.44700194000006, 28.669892095000023], [84.44733582300006, 28.669516481000073], [84.44772265100005, 28.669189603000063], [84.44810947600007, 28.668862725000054], [84.44849629900006, 28.668535845000065], [84.44857011500005, 28.66846457400004], [84.44865656900004, 28.66829666600006], [84.44895168300008, 28.66792376500007], [84.44924679400003, 28.667550864000077], [84.44954190400006, 28.66717796100005], [84.44983853900004, 28.666742010000064], [84.45006368600008, 28.666304710000077], [84.45028883100008, 28.665867410000033], [84.45051397400005, 28.665430110000045], [84.45073911500003, 28.66499280900007], [84.45089429700005, 28.664491112000064], [84.45104795000003, 28.664052464000065], [84.45120160200008, 28.663613815000076], [84.45121191900006, 28.663593777000074], [84.45142625600005, 28.66317744400004], [84.45142673600003, 28.663176512000064], [84.45151042800006, 28.662673468000037], [84.45173555900004, 28.662236165000024], [84.45188920500004, 28.661797515000046], [84.45204284900007, 28.661358865000068], [84.45219649200004, 28.660920215000033], [84.45235013400008, 28.660481564000065], [84.45250377400004, 28.66004291300004], [84.45272889400007, 28.65960560700006], [84.45288253100006, 28.659166955000046], [84.45317760300009, 28.658794042000068], [84.45319904700006, 28.65875238600006], [84.45322810700003, 28.65855191600008], [84.45332818700007, 28.658481488000064], [84.45362325500008, 28.65810857400004], [84.45406128000008, 28.657738348000066], [84.45435786700006, 28.657302383000058], [84.45465292800003, 28.656929466000065], [84.45487803100008, 28.656492155000024], [84.45517308800004, 28.65611923700004], [84.45539818700007, 28.655681925000067], [84.45569476300005, 28.655245956000044], [84.45587206100004, 28.655021865000037], [84.45588020200006, 28.655013737000047], [84.45629706500006, 28.654597564000028], [84.45671392700007, 28.654181391000066], [84.45713079000006, 28.653765217000057], [84.45754765200007, 28.653349044000038], [84.45796451500007, 28.652932871000075], [84.45838137700008, 28.652516698000056], [84.45879824000008, 28.652100524000048], [84.45921510200003, 28.65168435100003], [84.45963196500009, 28.651268178000066], [84.46004882700004, 28.650852005000047], [84.46046569000004, 28.650852005000047], [84.46046569000004, 28.651268178000066], [84.46046569100008, 28.654426251000075], [84.46098684700007, 28.655950206000057], [84.46110431300008, 28.656293693000066], [84.46129941500004, 28.657091381000043], [84.46142979300004, 28.657624431000045], [84.46182828000008, 28.65889346000006], [84.46215377500005, 28.660224197000048], [84.46224886800007, 28.661109074000024], [84.46250262700005, 28.661546779000048], [84.46254522800007, 28.66202497300003], [84.46258783000007, 28.66250316600008], [84.46273978400006, 28.662935669000035], [84.46283648800005, 28.663414877000037], [84.46287909000006, 28.66389307000003], [84.46292169300006, 28.664371263000078], [84.46291019400007, 28.66484844200005], [84.46284459200007, 28.66532460600007], [84.46283309200004, 28.665801785000042], [84.46282159200007, 28.66627896400007], [84.46291829800003, 28.666758171000026], [84.46290679700007, 28.667235350000055], [84.46294940100006, 28.667713543000048], [84.46299200400006, 28.66819173600004], [84.46303460700005, 28.668669928000043], [84.46303345700005, 28.66871764600006], [84.46317392000003, 28.669627328000047], [84.46321652400007, 28.67010552100004], [84.46320502400005, 28.670582700000068], [84.46330173400008, 28.671061907000023], [84.46334433900006, 28.671540100000072], [84.46333283800004, 28.672017278000055], [84.46348480600005, 28.672449782000058], [84.46363677500005, 28.67288228500007], [84.46362527500008, 28.673359463000054], [84.46377724600006, 28.673791967000057], [84.46382905300004, 28.673888417000057], [84.46401788400004, 28.675037702000054], [84.46406049200004, 28.675515894000057], [84.46415720900006, 28.67599510100007], [84.46419981800005, 28.676473293000072], [84.46424242800003, 28.676951486000064], [84.46433914600004, 28.677430693000076], [84.46449112400006, 28.677863195000043], [84.46469721300008, 28.678296712000076], [84.46495741200005, 28.678731242000026], [84.46510939400008, 28.67916374400005], [84.46509789800007, 28.67964092300008], [84.46519462200007, 28.680120129000045], [84.46534545700007, 28.68060034900003], [84.46533396100006, 28.68107752800006], [84.46532246500004, 28.681554706000043], [84.46537657600004, 28.681555720000063], [84.46497825200004, 28.682359826000038], [84.46491264200006, 28.682835991000047], [84.46484703100003, 28.683312155000067], [84.46472730800008, 28.683787305000067], [84.46450050800007, 28.684212709000064], [84.46421959400004, 28.684637097000063], [84.46399279000008, 28.685062500000072], [84.46360594700008, 28.68538942200007], [84.46316498800007, 28.68571532900006], [84.46311087500004, 28.68571431400005], [84.46212072300006, 28.686364092000076], [84.46173386900006, 28.686691008000025], [84.46134701300008, 28.68701792300004], [84.46101311700005, 28.68739357100003], [84.46062625600007, 28.687720484000067], [84.46023939200006, 28.68804739500007], [84.45990548800006, 28.688423040000032], [84.45967865800003, 28.688848433000032], [84.45966713300004, 28.689325609000036], [84.45949441500005, 28.689752018000036], [84.45910408200007, 28.690222078000033], [84.45877016600008, 28.69059771900004], [84.45854332600004, 28.69102311000006], [84.45815644400005, 28.69135001400008], [84.45782136800005, 28.691773369000032], [84.45748744300005, 28.69214900600008], [84.45720647800005, 28.69257337600004], [84.45715236200004, 28.692572359000053], [84.45648565400006, 28.693275910000068], [84.45620468100003, 28.69370027800005], [84.45613902100007, 28.694176434000042], [84.45613806000006, 28.694183401000032], [84.45611113200005, 28.694235694000042], [84.45588594000003, 28.694673000000023], [84.45559076600006, 28.69504591200007], [84.45536557000008, 28.69548321600007], [84.45507039200004, 28.695856126000024], [84.45470218000008, 28.696290738000073], [84.45440699800008, 28.696663646000047], [84.45418179300003, 28.69710094800007], [84.45388660600008, 28.697473855000055], [84.45359141800003, 28.69784676100005], [84.45336620600006, 28.698284061000038], [84.45321250100005, 28.69872270700006], [84.45305421100005, 28.699350499000047], [84.45305356900008, 28.69935435900004], [84.45286382700004, 28.699748000000056], [84.45252523300007, 28.70031449100003], [84.45252407600003, 28.700362208000058], [84.45212094800007, 28.701357132000055], [84.45183993500007, 28.70178148800005], [84.45166716100005, 28.70220788300003], [84.45154735000006, 28.702683015000048], [84.45137457400006, 28.703109410000025], [84.45120063800005, 28.70358352100004], [84.45102670100005, 28.704057633000048], [84.45085392000004, 28.704484026000046], [84.45062701500007, 28.70490939900003], [84.45050719500006, 28.70538452900007], [84.45028028600007, 28.705809901000066], [84.45020351100004, 28.70595382600004], [84.45011755800004, 28.705997117000038], [84.45008366500008, 28.70617849200005], [84.45005337500004, 28.70623527300006], [84.44977233900005, 28.706659623000064], [84.44977118100007, 28.706707340000037], [84.44942907100005, 28.707416971000043], [84.44925511800005, 28.707891078000046], [84.44908232200004, 28.708317469000065], [84.44901661500006, 28.708793618000072], [84.44905915600003, 28.709271810000075], [84.44915582200008, 28.709751023000024], [84.44938295000009, 28.709908006000035], [84.44945337200005, 28.710336910000024], [84.44953452300007, 28.71083115600004], [84.44952256900007, 28.71132364600004], [84.44969682700008, 28.711819649000063], [84.44968487300008, 28.712312138000073], [84.44967291900008, 28.71280462800007], [84.44966096500008, 28.71329711800007], [84.44964901000003, 28.71378960800007], [84.44954394700005, 28.714280341000062], [84.44953199200006, 28.714772830000072], [84.44948939800008, 28.714971776000027], [84.44924868000004, 28.714931723000063], [84.44869002800004, 28.71492118100008], [84.44813137700004, 28.71491063700006], [84.44757073100004, 28.71498217100003], [84.44718633000008, 28.715467627000066], [84.44694097400009, 28.715811220000035], [84.44678044100004, 28.716122822000045], [84.44662514400005, 28.716624504000038], [84.44632833900005, 28.717060436000054], [84.44610305100008, 28.71749771900005], [84.44594928100008, 28.717936352000038], [84.44586549700006, 28.718439384000078], [84.44564020400009, 28.71887666600003], [84.44548489600004, 28.719378346000042], [84.44518961100005, 28.719751227000074], [84.44482280200003, 28.720122755000034], [84.44452751200004, 28.72049563300004], [84.44425745100006, 28.720685520000075], [84.44400715500007, 28.721063350000065], [84.44378018200007, 28.72148870700005], [84.44344610700006, 28.72186429800007], [84.44305905900006, 28.722191148000036], [84.44272497900005, 28.72256673700008], [84.44233676500005, 28.72294130100005], [84.44205564800006, 28.723365629000057], [84.44156381500005, 28.723547275000044], [84.44051787200004, 28.72424355100003], [84.44035315000008, 28.724335909000047], [84.43996608400005, 28.72466274900006], [84.43957901600004, 28.72498958700004], [84.43919194500006, 28.725316424000027], [84.43896494200004, 28.72574177000007], [84.43879090600007, 28.726215858000046], [84.43861803300007, 28.72664222900005], [84.43828508600006, 28.726970089000076], [84.43811453700005, 28.727301026000077], [84.43767448400007, 28.727579115000026], [84.43728739700003, 28.727905945000032], [84.43690030800008, 28.728232775000038]], [[84.43756838800005, 28.72124695900004], [84.43699005900004, 28.721488300000033], [84.43649248300005, 28.721352711000065], [84.43621562900006, 28.720969000000025], [84.43593877700005, 28.72058528900004], [84.43551734600004, 28.720261910000033], [84.43524049800004, 28.71987819800006], [84.43503825200008, 28.71936974700003], [84.43476140800004, 28.718986034000068], [84.43462914600008, 28.718541987000037], [84.43442536500004, 28.718096583000033], [84.43429310600004, 28.71765253600006], [84.43401626900004, 28.71726882200005], [84.43381249300006, 28.716823417000057], [84.43360871800007, 28.716378012000064], [84.43362258000008, 28.715810586000032], [84.43370641900003, 28.715307564000057], [84.43393175200003, 28.714870306000023], [84.43408556500003, 28.714431689000037], [84.43416940000003, 28.71392866700006], [84.43418171800005, 28.713424287000066], [84.43419403500008, 28.71291990800006], [84.43420635200005, 28.712415528000065], [84.43421866900007, 28.71191114900006], [84.43423098500006, 28.711406769000064], [84.43424330100004, 28.71090238900007], [84.43425561700008, 28.710398010000063], [84.43425715700005, 28.710334962000047], [84.43508762700003, 28.711486101000048], [84.43529140000004, 28.711931503000073], [84.43549517500009, 28.71237690600003], [84.43569895100006, 28.712822308000057], [84.43597578400005, 28.71320601900004], [84.43639565200004, 28.71359244200005], [84.43667248900005, 28.713976152000043], [84.43687473500006, 28.71448460000005], [84.43707852100005, 28.714930001000027], [84.43721079000005, 28.71537404600008], [84.43748609700003, 28.715820802000053], [84.43768988700003, 28.716266202000043], [84.43796519800009, 28.716712957000027], [84.43824051100006, 28.71715971200007], [84.43837125000005, 28.717666804000032], [84.43857504700009, 28.718112203000032], [84.43856274800004, 28.718616584000074], [84.43862197000004, 28.719122320000054], [84.43860967000006, 28.71962670100004], [84.43852585000008, 28.72012972600004], [84.43823053900007, 28.720502590000024], [84.43793522600004, 28.720875453000076], [84.43756838800005, 28.72124695900004]]]}}]}