{"type": "FeatureCollection", "features": [{"type": "Feature", "properties": {"key": "rikha_samba", "label": "Rikha Samba Glacier", "rgi_id": "RGI60-15.04847", "rgi_area_km2": 6.504, "zmin_m": 5380, "zmax_m": 6513, "zmed_m": 5809, "slope_deg": 16.2, "aspect_deg": 176, "length_m": 5805}, "geometry": {"type": "Polygon", "coordinates": [[[83.49301922400008, 28.846369608000032], [83.49317416600007, 28.846156766000036], [83.49365958900006, 28.84591721700008], [83.49405243700005, 28.845591195000054], [83.49444528300006, 28.84526517200004], [83.49474555400008, 28.844852677000063], [83.49504582200007, 28.844440182000028], [83.49553687000008, 28.844032648000052], [83.49601946000007, 28.84387707700006], [83.49659743900008, 28.843723986000043], [83.49708002700004, 28.843568411000035], [83.49718452300004, 28.843516838000028], [83.49723008700005, 28.84328510200004], [83.49734237800004, 28.842783651000047], [83.49755005700007, 28.842284679000045], [83.49775773300007, 28.84178570800003], [83.49815336900008, 28.841375683000024], [83.49854900100007, 28.840965656000037], [83.49913259200008, 28.840644575000056], [83.49961797600008, 28.840405000000032], [83.50010054400008, 28.840249413000038], [83.50067568500003, 28.840180290000035], [83.50116106400003, 28.839940710000064], [83.50146129300003, 28.83952819700005], [83.50176151800008, 28.839115682000056], [83.50177839500003, 28.838611748000062], [83.50140810000005, 28.838265886000045], [83.50093679600008, 28.838085523000075], [83.50047112100003, 28.837737181000023], [83.49999982100007, 28.837556816000074], [83.49962953700003, 28.837210949000053], [83.49945283800008, 28.836786049000068], [83.49937434000003, 28.836279638000065], [83.49939122600006, 28.83577570500006], [83.49950630800004, 28.835190262000026], [83.49980934000007, 28.83469376200003], [83.50010955600004, 28.83428125000006], [83.50031438800005, 28.833866261000026], [83.49984591800006, 28.83360190700006], [83.49917824600004, 28.833584563000045], [83.49860595700005, 28.833569693000072], [83.49803366700007, 28.833554822000053], [83.49766340300005, 28.833208951000074], [83.49739133700007, 28.832781570000066], [83.49721465400006, 28.832356669000035], [83.49703797100005, 28.83193176700007], [83.49686129100007, 28.83150686500005], [83.49668461100003, 28.83108196300003], [83.49641255400007, 28.830654581000033], [83.49623587700006, 28.830229678000023], [83.49625277400008, 28.829725747000055], [83.49636504700004, 28.829224295000074], [83.49666525800006, 28.828811791000078], [83.49639320600005, 28.828384409000023], [83.49602296400008, 28.828038536000065], [83.49565272400008, 28.82769266200006], [83.49528248600006, 28.827346787000067], [83.49491225200006, 28.827000911000027], [83.49454201900005, 28.826655035000044], [83.49436535500007, 28.826230131000045], [83.49400076200004, 28.825716277000026], [83.49373826400006, 28.825303872000063], [83.49375472100007, 28.82519232900006], [83.49387898600008, 28.824718406000045], [83.49400325000005, 28.82424448300003], [83.49423418500004, 28.82382104900006], [83.49430431000008, 28.823345717000052], [83.49482989800003, 28.822214211000073], [83.49483149600007, 28.822166537000044], [83.49500828800007, 28.821741694000025], [83.49518507800008, 28.821316850000073], [83.49536186600005, 28.820892006000065], [83.49553865300004, 28.820467162000057], [83.49582370600007, 28.820045132000075], [83.49605462200003, 28.819621693000045], [83.49633967100004, 28.819199662000074], [83.49662791200006, 28.818682281000065], [83.49680468900004, 28.81825743400003], [83.49703559700004, 28.81783399300008], [83.49732063600004, 28.817411959000026], [83.49755154000007, 28.816988517000027], [83.49778244100008, 28.81656507400004], [83.49806747300005, 28.816143037000074], [83.49829837100003, 28.81571959400003], [83.49858339800005, 28.81529755500003], [83.49886842300003, 28.81487551600003], [83.49938912300007, 28.813887007000062], [83.49939071900008, 28.813839332000043], [83.49972827100004, 28.81346637100006], [83.50001328500008, 28.813044328000046], [83.50024416700006, 28.812620880000054], [83.50042251200006, 28.812148351000076], [83.50059926100005, 28.81172349700006], [83.50077600700007, 28.811298642000054], [83.50090021800008, 28.81082470700005], [83.50113109000006, 28.810401256000034], [83.50130783200007, 28.80997640000004], [83.50148457200004, 28.809551543000055], [83.50150051900005, 28.80907479800004], [83.50151646600006, 28.808598053000026], [83.50153241300006, 28.808121308000068], [83.50160248600008, 28.80764596800003], [83.50167256000003, 28.807170627000062], [83.50190501400004, 28.806699499000047], [83.50229506500006, 28.806375606000074], [83.50325028900005, 28.805350632000057], [83.50325188300008, 28.805302957000038], [83.50359098500007, 28.80488230700007], [83.50382183100004, 28.80445885000006], [83.50399855000006, 28.80403398800007], [83.50433764400003, 28.803613335000023], [83.50467514300004, 28.80324035600006], [83.50485185500008, 28.802815493000026], [83.50508269100004, 28.802392032000057], [83.50531352500008, 28.801968570000042], [83.50554435700008, 28.801545108000028], [83.50572106200008, 28.80112024300007], [83.50606013900006, 28.800699585000075], [83.50558098100004, 28.80044858900004], [83.50503814500007, 28.80048223700004], [83.50454465500007, 28.80066031000007], [83.50405275700007, 28.800790706000043], [83.50355767100007, 28.801016450000077], [83.50311511400008, 28.801291270000036], [83.50267255500006, 28.80156608900006], [83.50222999400006, 28.801840906000052], [83.50173490000003, 28.802066642000057], [83.50124139800005, 28.802244702000053], [83.50074789500007, 28.80242276000007], [83.50025439000007, 28.80260081600005], [83.49975928800006, 28.802826544000027], [83.49926259000006, 28.803099945000042], [83.49887254400005, 28.803423829000053], [83.49848249500008, 28.803747711000028], [83.49803991500005, 28.804022513000064], [83.49754480200005, 28.804248232000077], [83.49710221700008, 28.804523029000052], [83.49665803400006, 28.804845500000056], [83.49626797300004, 28.805169375000048], [83.49598296900007, 28.805591410000034], [83.49564543400004, 28.805964364000033], [83.49530789500005, 28.806337317000043], [83.49502288400004, 28.80675934900006], [83.49468534100004, 28.807132300000035], [83.49434779500007, 28.80750524900003], [83.49395771800005, 28.80782911600005], [83.49351351000007, 28.808151574000078], [83.49312342800005, 28.808475438000073], [83.49278587200007, 28.808848383000054], [83.49255497100006, 28.809271817000024], [83.49226994000009, 28.80969384200006], [83.49198490700007, 28.810115866000046], [83.49169987100004, 28.810537890000035], [83.49107406300004, 28.811428199000034], [83.49107246300008, 28.811475873000063], [83.49084154900004, 28.811899303000075], [83.49066476200005, 28.81232414200008], [83.49048797400008, 28.812748980000038], [83.49015039400007, 28.813121915000067], [83.48991947200005, 28.813545343000044], [83.48947682700003, 28.81382011000005], [83.48913924000004, 28.814193043000046], [83.48874912100007, 28.81451689100004], [83.48846405900008, 28.814938905000076], [83.48812646400006, 28.815311835000045], [83.48778886700006, 28.815684763000036], [83.48739873800008, 28.816008606000025], [83.48706113600008, 28.816381532000037], [83.48667100200004, 28.816705373000048], [83.48572192100005, 28.817539511000064], [83.48566618700005, 28.817585773000076], [83.48527604400005, 28.817909609000026], [83.48488589900006, 28.818233443000054], [83.48449575100005, 28.818557276000035], [83.48415813000008, 28.81893019300003], [83.48398130200007, 28.819355019000056], [83.48380447300008, 28.81977984400004], [83.48373430400005, 28.820255167000028], [83.48386303100006, 28.821260548000055], [83.48380729300004, 28.821306809000077], [83.48341713000008, 28.821630637000055], [83.48287739400007, 28.821568839000065], [83.48250968600007, 28.821225236000032], [83.48225345600008, 28.820789112000057], [83.48194149000005, 28.82039924700007], [83.48163113100009, 28.81996170900004], [83.48126343200005, 28.81961810300004], [83.48067118100005, 28.81950721000004], [83.48012664400005, 28.819588422000038], [83.48006629200006, 28.81999715200004], [83.48005645900008, 28.82006374200006], [83.48009454000004, 28.820541889000026], [83.48024249300005, 28.82097519000007], [83.48033470900003, 28.821454750000044], [83.48031865700005, 28.82193148300007], [83.48038070200005, 28.822254144000055], [83.48041087300004, 28.822411044000035], [83.48050309000007, 28.822890604000065], [83.48054117300006, 28.823368751000032], [83.48090888100006, 28.82371236000006], [83.48145023000006, 28.823726493000038], [83.48199158000006, 28.823740625000028], [83.48247398200004, 28.82389636100004], [83.48278595900007, 28.824286226000027], [83.48304219800008, 28.82472235000006], [83.48344480700007, 28.82563944700007], [83.48344320300004, 28.825687120000055], [83.48342716300004, 28.82616385500006], [83.48357513600007, 28.82659715400007], [83.48372311000008, 28.82703045200003], [83.48387108500003, 28.82746375100004], [83.48401906100008, 28.827897049000057], [83.48405715900003, 28.82837519700007], [83.48414939500003, 28.828854756000055], [83.48429737300006, 28.829288055000063], [83.48449949100007, 28.829722765000042], [83.48475574900004, 28.830158888000028], [83.48501200900006, 28.830595010000025], [83.48508500600008, 28.831646652000074], [83.48513754200007, 28.831695737000075], [83.48517564500008, 28.83217388500003], [83.48515960800006, 28.832650620000038], [83.48514357000005, 28.833127355000045], [83.48496511200005, 28.833599853000067], [83.48463494500004, 28.834268536000025], [83.48454825600004, 28.834296477000066], [83.48406569900004, 28.834452009000074], [83.48396007500008, 28.834475626000028], [83.48397040300006, 28.834168730000044], [83.48394566500008, 28.83370706100004], [83.48388188200005, 28.833208910000053], [83.48377666800008, 28.83274514200008], [83.48375193100009, 28.832283474000064], [83.48376743200004, 28.83182285500004], [83.48378531700007, 28.831291372000067], [83.48376057900003, 28.830829703000063], [83.48357489300008, 28.83036383500007], [83.48326611200008, 28.829965681000033], [83.48295733400005, 28.829567526000062], [83.48264736500005, 28.82920480300004], [83.48233739800008, 28.828842080000072], [83.48219195700005, 28.82837726100007], [83.48219672800008, 28.828235532000065], [83.48208079000005, 28.82809065300006], [83.48177202100004, 28.827692496000054], [83.48146206100006, 28.827329771000052], [83.48107401800007, 28.826894080000045], [83.48076406300004, 28.826531354000053], [83.48066439300004, 28.826341978000073], [83.48036528600005, 28.826414550000038], [83.47979840800008, 28.826506134000056], [83.47923153000005, 28.826597716000038], [83.47870846700005, 28.826584050000065], [83.47818540500003, 28.826570383000046], [83.47779669100004, 28.826453834000063], [83.47767689900007, 28.826450704000024], [83.47746474800005, 28.82644515900006], [83.47725015900005, 28.826439550000032], [83.47690384100008, 28.82635957000008], [83.47638317000008, 28.82627503200007], [83.47636622100003, 28.826318868000044], [83.47630150500004, 28.82630836000004], [83.47578083500008, 28.826223819000063], [83.47521993100008, 28.826138224000033], [83.47465783300004, 28.82608805900003], [83.47397383500004, 28.826070165000033], [83.47378217300007, 28.82607811500003], [83.47368979800007, 28.82613366000004], [83.47323884200006, 28.826370101000066], [83.47286596300006, 28.826679511000066], [83.47237476700008, 28.826914896000062], [83.47184811800008, 28.827007499000047], [83.47134458200009, 28.826891190000026], [83.47132864700006, 28.826887509000073], [83.47089563000003, 28.82659246600008], [83.47041879000005, 28.826402663000067], [83.46999227900005, 28.82642034400004], [83.46989453700007, 28.82642439500006], [83.46942067700007, 28.826539327000035], [83.46952045200004, 28.826769226000067], [83.46970606900004, 28.827235108000025], [83.46985046100008, 28.827567810000062], [83.46989288400005, 28.827665558000035], [83.47003826800005, 28.828130386000055], [83.47018365300005, 28.828595214000075], [83.47028880300007, 28.829058987000053], [83.47047562300008, 28.829489437000063], [83.47070268100003, 28.82992094000008], [83.47097117300007, 28.830318066000075], [83.47132133900004, 28.830681866000077], [83.47163126900006, 28.831044612000028], [83.47206430600005, 28.831339654000033], [83.47245710700008, 28.831633642000043], [83.47280847800005, 28.831962007000072], [83.47290288500005, 28.832018448000042], [83.47301398700006, 28.832343872000024], [83.47301237800008, 28.832391545000064], [83.47349480100007, 28.832547316000046], [83.47403619200009, 28.832561483000063], [83.47457919200008, 28.83252797600005], [83.47512380000006, 28.83244679300003], [83.47561587600006, 28.832316518000027], [83.47615726700008, 28.832330677000073], [83.47669865800003, 28.832344834000025], [83.47724005000003, 28.832358988000067], [83.47778144200004, 28.832373140000072], [83.47831962100008, 28.832482637000055], [83.47885178200005, 28.832496544000037], [83.47895168700006, 28.83251276200008], [83.47947119800006, 28.832632726000043], [83.48002975500003, 28.83278917100006], [83.48058711900006, 28.832981045000054], [83.48110424800007, 28.833171867000033], [83.48148051200008, 28.83332159300005], [83.48161541400003, 28.833539847000054], [83.48180228800004, 28.833970285000078], [83.48190049400006, 28.834284138000044], [83.48169675400004, 28.834712258000025], [83.48140195600007, 28.835094656000024], [83.48122548700007, 28.835551070000065], [83.48120997200004, 28.836011687000052], [83.48127493700008, 28.836474406000036], [83.48129966100004, 28.83693607400005], [83.48131472300008, 28.837002470000073], [83.48120630700004, 28.83715138200006], [83.48113004100009, 28.837189013000057], [83.48112523300006, 28.837331747000064], [83.48112199400003, 28.83742791900005], [83.48110647800007, 28.837888536000037], [83.48105072100003, 28.838348102000054], [83.48107425100005, 28.838845202000073], [83.48113921500004, 28.839307921000056], [83.48120298600008, 28.839806071000055], [83.48122770900005, 28.84026773900007], [83.48121219200004, 28.840728356000056], [83.48131739800004, 28.841192125000077], [83.48142673600006, 28.84130569100006], [83.48145204900004, 28.841192728000067], [83.48194029800004, 28.840869234000024], [83.48214521500006, 28.840454280000074], [83.48225757200004, 28.839952847000063], [83.48246248500004, 28.839537892000067], [83.48285533800004, 28.839211904000024], [83.48315563200003, 28.838799437000034], [83.48336053900005, 28.83838448000006], [83.48344669700003, 28.838327391000064], [83.48337750300004, 28.837880556000073], [83.48338172500007, 28.837755134000076], [83.48374592300007, 28.837623842000028], [83.48422678600008, 28.837827252000068], [83.48459455300008, 28.838170855000044], [83.48490657500008, 28.838560718000053], [83.48532848900004, 28.838905732000057], [83.48569626400007, 28.839249332000065], [83.48573436800007, 28.839727479000032], [83.48549741900007, 28.840207342000042], [83.48537730600003, 28.840234198000076], [83.48492630700008, 28.840470676000052], [83.48459245300006, 28.84081659800006], [83.48418049900005, 28.841089555000053], [83.48369044600008, 28.841289545000052], [83.48320039000004, 28.84148953400006], [83.48282747900004, 28.841798968000035], [83.48305461100006, 28.842230457000028], [83.48357059700004, 28.842456705000075], [83.48396347300007, 28.84275066500004], [83.48427228900005, 28.843148821000057], [83.48445918800007, 28.843579257000044], [83.48452416800006, 28.844041976000028], [83.48466963300007, 28.84450679400004], [83.48465412800005, 28.844967413000063], [83.48479959500008, 28.845432231000075], [83.48515105000007, 28.845760571000028], [83.48567302000004, 28.84580965200007], [83.48601475700008, 28.845865109000044], [83.48606729300008, 28.845939153000074], [83.48654980200007, 28.846094884000024], [83.48708806300004, 28.84620435200003], [83.48768207600006, 28.846267556000043], [83.48822354600009, 28.846281673000078], [83.48876501600006, 28.84629578700003], [83.48930328200004, 28.846405247000064], [83.48984475400005, 28.84641935700006], [83.49038782800005, 28.846385791000046], [83.49092930000006, 28.846399897000026], [83.49130901800004, 28.84608478900003], [83.49188207300006, 28.846172160000037], [83.49245160600003, 28.846271052000077], [83.49301922400008, 28.846369608000032]]]}}]}